[
{"types": ["Asa"], "model": "tle_satellite", "model_data": {"norad_number": 43759, "designation": "18099B", "tle": ["1 43759U 18099B   20029.51460636 -.00000327  00000-0 -24427-4 0  9996", "2 43759  97.7218 103.4577 0012976 292.7238  67.2610 14.95220186 63020"], "group": ["Cubesat"], "status": "Operational", "owner": "United States", "launch_site": "Air Force Western Test Range, California, USA", "launch_date": "2018-12-03"}, "names": ["NAME SIRION PATHFINDER-2", "NORAD 43759"], "short_name": "SIRION PATHFINDER-2", "interest": 3.1}
{"CCSDS_OMM_VERS":"2.0","COMMENT":"GENERATED VIA SPACE-TRACK.ORG API","CREATION_DATE":"2021-10-02T19:36:10","ORIGINATOR":"18 SPCS","OBJECT_NAME":"DRAGON CRS-23 DEB","OBJECT_ID":"2021-078B","CENTER_NAME":"EARTH","REF_FRAME":"TEME","TIME_SYSTEM":"UTC","MEAN_ELEMENT_THEORY":"SGP4","EPOCH":"2021-10-02T19:14:06.856800","MEAN_MOTION":"15.80676264","ECCENTRICITY":"0.01124760","INCLINATION":"51.6412","RA_OF_ASC_NODE":"170.1372","ARG_OF_PERICENTER":"171.6285","MEAN_ANOMALY":"188.8560","EPHEMERIS_TYPE":"0","CLASSIFICATION_TYPE":"U","NORAD_CAT_ID":"49268","ELEMENT_SET_NO":"999","REV_AT_EPOCH":"28","BSTAR":"0.00064921000000","MEAN_MOTION_DOT":"0.00200653","MEAN_MOTION_DDOT":"0.0000240880000","SEMIMAJOR_AXIS":"6706.664","PERIOD":"91.100","APOAPSIS":"403.963","PERIAPSIS":"253.095","OBJECT_TYPE":"DEBRIS","RCS_SIZE":null,"COUNTRY_CODE":null,"LAUNCH_DATE":null,"SITE":null,"DECAY_DATE":null,"FILE":"3140731","GP_ID":"185993681","TLE_LINE0":"0 DRAGON CRS-23 DEB","TLE_LINE1":"1 49268U 21078B   21275.80146825  .00200653  24088-4  64921-3 0  9995","TLE_LINE2":"2 49268  51.6412 170.1372 0112476 171.6285 188.8560 15.80676264   283"},{"CCSDS_OMM_VERS":"2.0","COMMENT":"GENERATED VIA SPACE-TRACK.ORG API","CREATION_DATE":"2021-09-29T18:04:29","ORIGINATOR":"18 SPCS","OBJECT_NAME":"YUNHAI 1-02 DEB","OBJECT_ID":"2019-063AT","CENTER_NAME":"EARTH","REF_FRAME":"TEME","TIME_SYSTEM":"UTC","MEAN_ELEMENT_THEORY":"SGP4","EPOCH":"2021-09-28T00:18:31.550688","MEAN_MOTION":"14.34111012","ECCENTRICITY":"0.00043480","INCLINATION":"98.5535","RA_OF_ASC_NODE":"296.3547","ARG_OF_PERICENTER":"107.3701","MEAN_ANOMALY":"252.8041","EPHEMERIS_TYPE":"0","CLASSIFICATION_TYPE":"U","NORAD_CAT_ID":"49267","ELEMENT_SET_NO":"999","REV_AT_EPOCH":"2700","BSTAR":"0.00163320000000","MEAN_MOTION_DOT":"0.00004529","MEAN_MOTION_DDOT":"0.0000000000000","SEMIMAJOR_AXIS":"7156.159","PERIOD":"100.411","APOAPSIS":"781.136","PERIAPSIS":"774.913","OBJECT_TYPE":"DEBRIS","RCS_SIZE":null,"COUNTRY_CODE":null,"LAUNCH_DATE":null,"SITE":null,"DECAY_DATE":null,"FILE":"3134986","GP_ID":"185794113","TLE_LINE0":"0 YUNHAI 1-02 DEB","TLE_LINE1":"1 49267U 19063AT  21271.01286517  .00004529  00000-0  16332-2 0  9997","TLE_LINE2":"2 49267  98.5535 296.3547 0004348 107.3701 252.8041 14.34111012 27008"}
  ]
